C/2020 H8 (PANSTARRS),e,99.7001,68.4370,128.9184,599.9978,0.0000671,0.99221170,0.0000,06/04.5496/2020,2000,g 10.5,4.0
# From MPEC 2022-ED3
A/2020 H9,e,137.8794,213.1837,312.7923,366.7591,0.0001403,0.99299090,0.0000,12/21.8175/2019,2000,g 18.0,2.0
# From MPEC 2023-HN7
C/2020 H11 (PANSTARRS-Lemmon),h,09/14.6452/2020,151.3939,303.0431,91.4455,1.001861,7.625399,2000,8.5,4.0
# From MPEC 2023-KD6
C/2020 J1 (SONEAR),h,04/18.5860/2021,142.3059,226.6107,341.7122,1.000610,3.351249,2000,8.5,3.2
# From MPEC 2023-W26
C/2020 K1 (PANSTARRS),e,89.6733,94.3599,213.9847,16686,0.0000005,0.99981581,0.0000,05/09.0796/2023,2000,g  5.5,4.0
# From MPEC 2021-N06
C/2020 K2 (PANSTARRS),h,08/06.1316/2020,91.0118,288.4053,67.3491,1.003005,8.880615,2000,10.8,4.0
# From MPEC 2020-KF9
C/2020 K3 (Leonard),p,06/01.0032/2020,129.0152,64.4924,1.583069,28.3546,2000,14.5,4.0
# From MPEC 2020-L06
C/2020 K4 (PANSTARRS),e,125.5850,264.2321,308.8657,23.97194,0.0083975,0.92690873,11.4693,11/30.0/2023,2000,g 16.5,4.0
# From MPEC 2021-R75
C/2020 K5 (PANSTARRS),h,06/05.2955/2021,67.0947,86.1545,249.6227,1.001260,1.537604,2000,11.0,4.0
# From MPEC 2023-N01
C/2020 K6 (Rankin),h,09/15.7662/2021,103.6464,291.5691,44.3349,1.003560,5.868637,2000,8.0,4.0
# From MPEC 2023-A50
C/2020 K7 (PANSTARRS),e,32.0436,286.0966,358.2278,97.48638,0.0010240,0.93440769,1.5303,11/30.0/2023,2000,g  8.0,4.0
# From MPEC 2021-P47
C/2020 K8 (Catalina-ATLAS),h,09/15.0602/2020,31.4491,181.5155,259.9601,1.000216,0.471350,2000,15.0,3.2
# From MPEC 2021-BE3
P/2020 K9 (Lemmon-PANSTARRS),e,23.2057,166.3113,197.0487,4.204254,0.1143327,0.32103163,116.6868,11/30.0/2023,2000,g 12.5,4.0
# From MPEC 2023-C45
P/2020 M1 (PANSTARRS),e,8.5340,142.6067,72.6357,5.316353,0.0804051,0.47316453,115.4934,11/30.0/2023,2000,g 14.5,4.0
# From MPEC 2022-H30
C/2020 M3 (ATLAS),e,23.4692,71.1852,328.5582,27.17440,0.0069577,0.95328950,7.8623,11/30.0/2023,2000,g 14.5,4.0
# From MPEC 2023-N01
A/2020 M4,h,11/24.0123/2020,160.1213,348.6236,104.6055,1.001026,5.948550,2000,14.5,2.0
# From MPC xxxxx
P/2020 MK4 (PANSTARRS),e,6.7911,0.7082,96.5791,6.213332,0.0636381,0.01278747,278.2687,11/30.0/2023,2000,g  8.0,4.0
# From MPEC 2023-FK0
C/2020 M5 (ATLAS),h,08/19.8625/2021,93.2103,352.0807,126.2806,1.000344,3.001515,2000,9.0,4.0
# From MPEC 2022-GA9
C/2020 N1 (PANSTARRS),h,03/12.5385/2021,29.7315,279.9019,186.7701,1.000550,1.317455,2000,12.5,4.0
# From MPEC 2021-P47
C/2020 N2 (ATLAS),e,61.0369,257.1557,331.2523,101.3323,0.0009662,0.98230759,0.0000,08/23.5698/2020,2000,g 16.0,3.2
# From MPEC 2023-R20
C/2020 O2 (Amaral),h,08/28.2799/2021,71.7621,256.7838,10.2803,1.001094,4.861801,2000,8.0,3.2
# From MPEC 2023-C45
P/2020 O3 (PANSTARRS),e,8.4444,266.8184,81.5829,4.647317,0.0983786,0.10283894,101.7825,11/30.0/2023,2000,g 12.0,4.0
# From MPEC 2021-BE3
C/2020 P1 (NEOWISE),h,10/20.6591/2020,45.1654,53.4763,8.8948,1.000351,0.340623,2000,14.0,3.2
# From MPEC 2023-O39
C/2020 P3 (ATLAS),h,04/21.7747/2021,61.8873,19.4675,82.2927,1.002258,6.812939,2000,6.0,4.0
# From MPEC 2022-PB4
C/2020 PV6 (PANSTARRS),e,128.2109,329.1478,71.3637,42.04590,0.0036151,0.94544167,2.8735,11/30.0/2023,2000,g 10.0,4.0
# From MPEC 2022-L66
C/2020 Q1 (Borisov),e,42.9439,52.3982,9.9627,61.53589,0.0020418,0.97861121,0.0000,08/14.8987/2020,2000,g 14.0,4.0
# From MPEC 2023-CD7
C/2020 Q2 (PANSTARRS),e,3.3357,179.8236,118.2831,10.63034,0.0284370,0.49076169,39.8547,11/30.0/2023,2000,g 12.0,3.2
# From MPEC 2022-X67
C/2020 R2 (PANSTARRS),e,53.2279,195.0956,211.8241,419.7726,0.0001146,0.98881742,0.0000,02/25.1129/2022,2000,g  9.0,4.0
# From MPEC 2022-K19
C/2020 R4 (ATLAS),e,164.4406,323.2660,46.6468,99.58057,0.0009918,0.98970415,0.0000,03/02.3105/2021,2000,g 13.5,4.0
# From MPEC 2023-C45
P/2020 R5 (PANSTARRS),e,11.4422,272.9579,82.6953,4.989405,0.0884364,0.31418342,113.1616,11/30.0/2023,2000,g  9.5,6.0
# From MPEC 2021-Y10
C/2020 R6 (Rankin),e,82.8207,12.1832,271.9971,305.1649,0.0001849,0.98972355,0.0000,09/07.9750/2019,2000,g 11.0,4.0
# From MPEC 2023-TM6
C/2020 R7 (ATLAS),h,09/16.2389/2022,114.9010,268.2926,347.8371,1.000241,2.955683,2000,7.0,3.2
# From MPEC 2021-BE3
P/2020 S1 (PANSTARRS),e,13.7245,129.5189,255.0266,5.996167,0.0671264,0.50765228,70.2379,11/30.0/2023,2000,g 14.0,4.0
# From MPEC 2022-ST7
C/2020 S2 (PANSTARRS),e,22.4034,197.6935,202.3449,10.23293,0.0301096,0.82819627,32.2983,11/30.0/2023,2000,g 17.0,4.0
# From MPEC 2022-C56
C/2020 S3 (Erasmus),e,20.0179,222.5972,350.0747,147.7146,0.0005490,0.99732030,0.0000,12/11.7420/2020,2000,g 13.5,3.2
# From MPEC 2023-O39
C/2020 S4 (PANSTARRS),h,02/09.2588/2023,20.5676,117.7124,20.9990,1.001679,3.369687,2000,8.5,3.2
# From MPEC 2021-BE3
P/2020 S5 (PANSTARRS),e,12.3465,316.0584,53.2124,4.055571,0.1206774,0.33823908,145.7617,11/30.0/2023,2000,g 14.5,4.0
# From MPEC 2021-BE3
P/2020 S7 (PANSTARRS),e,16.0844,328.0934,40.5816,5.032818,0.0872946,0.41045916,96.5676,11/30.0/2023,2000,g 14.5,4.0
# From MPEC 2021-P47
C/2020 S8 (Lemmon),e,108.5277,24.0666,160.2337,255.3433,0.0002416,0.99075906,0.0000,04/10.7496/2021,2000,g 12.5,4.0
# From MPEC 2022-TD3
C/2020 T2 (Palomar),e,27.8375,83.0615,150.4458,297.0182,0.0001925,0.99306924,0.0000,07/10.8042/2021,2000,g 11.0,3.2
# From MPEC 2021-N06
P/2020 T3 (PANSTARRS),e,7.2983,73.9938,357.0407,3.516710,0.1494511,0.59231528,155.8572,11/30.0/2023,2000,g 18.0,3.2
# From MPEC 2021-N06
C/2020 T4 (PANSTARRS),h,07/05.4384/2021,83.8523,50.6197,79.5945,1.000308,2.190899,2000,13.0,3.2
# From MPEC 2021-BE3
C/2020 T5 (Lemmon),e,66.5474,237.8313,90.3542,703.8558,0.0000528,0.99731058,0.0000,10/09.0167/2020,2000,g 16.0,4.0
# From MPEC 2021-N06
P/2020 U2 (PANSTARRS),e,6.4204,342.8843,84.6568,3.777952,0.1342207,0.51131349,143.4280,11/30.0/2023,2000,g 18.0,4.0
# From MPEC 2021-W31
C/2020 U3 (Rankin),e,30.1488,282.6597,124.3543,66.99528,0.0017974,0.96599061,1.8454,11/30.0/2023,2000,g 15.0,4.0
# From MPEC 2023-W26
C/2020 U4 (PANSTARRS),h,04/09.3692/2022,167.0185,120.3513,70.0594,1.000308,5.359149,2000,7.0,4.0
# From MPEC 2023-SQ0
C/2020 U5 (PANSTARRS),e,97.2827,107.3202,75.4422,3825,0.0000042,0.99901786,0.0000,04/27.9958/2022,2000,g  8.0,4.0
# From MPEC 2023-W26
C/2020 V2 (ZTF),h,05/08.4771/2023,131.6115,212.3708,162.3948,1.000929,2.227572,2000,4.9,4.0
# From MPEC 2023-D72
P/2020 V3 (PANSTARRS),e,23.0325,198.2537,249.4695,8.392446,0.0405388,0.25741453,41.4340,11/30.0/2023,2000,g  8.3,4.0
# From MPEC 2023-KD6
P/2020 V4 (Rankin),e,14.2443,203.4827,257.0758,9.377157,0.0343240,0.45090964,29.6625,11/30.0/2023,2000,g  9.0,4.0
# From MPEC 2021-BE3
P/2020 W1 (Rankin),e,10.7831,124.3950,265.1608,7.219002,0.0508146,0.26629076,67.5436,11/30.0/2023,2000,g 10.0,4.0
# From MPEC 2021-BE3
C/2020 W5 (Lemmon),h,11/30.3458/2020,88.6068,75.4766,24.5125,1.001292,3.365841,2000,15.0,4.0
# From MPEC 2023-VM5
P/2020 WJ5 (Lemmon),e,22.2914,177.8030,338.0884,6.015077,0.0668101,0.17150404,58.9856,11/30.0/2023,2000,g  8.5,4.0
# From MPEC 2021-P47
P/2020 X1 (ATLAS),e,31.6878,56.0449,323.4283,4.532337,0.1021459,0.36531202,125.3334,11/30.0/2023,2000,g 13.0,4.0
# From MPEC 2023-VM5
C/2020 X2 (ATLAS),e,18.1844,105.3984,347.4178,16.47745,0.0147356,0.76772997,16.3358,11/30.0/2023,2000,g 10.6,4.0
# From MPEC 2021-S45
C/2020 X4 (Leonard),e,80.6241,161.9073,140.3174,40.79026,0.0037833,0.87193754,4.1956,11/30.0/2023,2000,g  9.0,4.0
# From MPEC 2023-V39
C/2020 Y2 (ATLAS),e,101.2324,26.5297,266.4122,4265,0.0000035,0.99926307,0.0000,06/18.6104/2022,2000,g  6.5,4.0
# From MPEC 2021-R75
C/2020 Y3 (ATLAS),e,83.1046,191.4304,341.9123,140.5226,0.0005917,0.98580799,0.0000,12/03.2763/2020,2000,g 13.5,4.0
# From MPEC 2023-CD7
C/2021 A1 (Leonard),h,01/03.3218/2022,132.7356,255.9051,225.1331,1.000075,0.616096,2000,8.5,4.0
# From MPEC 2022-F14
C/2021 A2 (NEOWISE),e,107.0024,125.1614,338.7691,229.5356,0.0002834,0.99384746,0.0000,01/22.3004/2021,2000,g 13.5,4.0
# From MPEC 2022-ED3
C/2021 A4 (NEOWISE),e,111.5538,307.1069,204.7163,42.38835,0.0035714,0.97291434,0.0000,03/19.6124/2021,2000,g 16.0,4.0
# From MPEC 2021-BE3
P/2021 A5 (PANSTARRS),e,18.1856,328.8308,61.3419,3.047581,0.1852556,0.13993099,205.9659,11/30.0/2023,2000,g 15.0,4.0
# From MPEC 2023-O39
C/2021 A6 (PANSTARRS),e,75.5933,164.0665,351.6166,8762,0.0000012,0.99909551,0.0000,05/02.9819/2021,2000,g  7.0,4.0
# From MPEC 2022-M88
C/2021 A7 (NEOWISE),e,78.1628,154.4834,355.9905,1947,0.0000115,0.99899075,0.0000,07/15.1479/2021,2000,g 10.0,4.0
# From MPEC 2023-W26
C/2021 A9 (PANSTARRS),h,12/01.9219/2023,158.0140,314.8356,211.4739,1.001319,7.760007,2000,6.0,4.0
# From MPEC 2021-N06
C/2021 A10 (NEOWISE),e,51.8968,188.6489,82.3887,88.27701,0.0011883,0.98569982,0.0000,03/14.9477/2021,2000,g 19.0,4.0
# From MPEC 2022-L66
C/2021 B2 (PANSTARRS),e,38.0818,120.5114,334.9895,373.6458,0.0001365,0.99327823,0.0000,05/04.5148/2021,2000,g 14.0,4.0
# From MPEC 2021-N06
C/2021 B3 (NEOWISE),e,119.4766,67.2776,293.5331,34.33143,0.0048997,0.93703154,4.8739,11/30.0/2023,2000,g 13.5,4.0
# From MPEC 2023-KD6
C/2021 C1 (Rankin),e,143.0439,186.8878,336.1844,4449,0.0000033,0.99921885,0.0000,12/06.7398/2020,2000,g 11.5,4.0
# From MPEC 2021-U31
P/2021 C2 (PANSTARRS),e,21.9391,66.4569,78.7010,9.535635,0.0334718,0.48761086,33.7872,11/30.0/2023,2000,g 12.0,4.0
# From MPEC 2021-N06
C/2021 C3 (Catalina),e,122.1690,181.9163,357.0403,61.35599,0.0020508,0.96294418,2.0940,11/30.0/2023,2000,g 14.0,4.0
# From MPEC 2022-M88
C/2021 C4 (ATLAS),e,132.8507,194.2732,320.1546,23248,0.0000003,0.99980647,0.0000,01/16.8988/2021,2000,g  9.0,4.0
# From MPEC 2023-R20
C/2021 C5 (PANSTARRS),e,50.7853,323.6762,270.9209,1949,0.0000115,0.99833705,0.0000,02/11.0401/2023,2000,g  9.0,4.0
# From MPEC 2022-YB4
C/2021 C6 (Lemmon),e,164.6079,332.3231,203.8150,30972,0.0000002,0.99989415,0.0000,11/12.8490/2021,2000,g 12.0,4.0
# From MPEC 2022-F14
C/2021 D1 (SWAN),e,31.4194,311.2691,72.2788,101.1359,0.0009690,0.99106694,0.0000,02/27.7620/2021,2000,g 13.0,4.0
# From MPEC 2023-J29
C/2021 D2 (ZTF),h,02/03.9595/2022,83.8021,305.6682,125.0280,1.001645,2.946345,2000,9.0,4.0
# From MPEC 2022-UY9
